OBJECT_NAME,OBJECT_ID,EPOCH,MEAN_MOTION,ECCENTRICITY,INCLINATION,RA_OF_ASC_NODE,ARG_OF_PERICENTER,MEAN_ANOMALY,EPHEMERIS_TYPE,CLASSIFICATION_TYPE,NORAD_CAT_ID,ELEMENT_SET_NO,REV_AT_EPOCH,BSTAR,MEAN_MOTION_DOT,MEAN_MOTION_DDOT
DMSP 5D-3 F16 (USA 172),2003-048A,2026-07-13T20:10:41.308032,14.14484840,.0008108,98.9896,218.8445,74.5240,29.8682,0,U,28054,999,17325,-.85823E-5,-.62E-6,0
METEOSAT-9 (MSG-2),2005-049B,2026-07-13T17:06:04.898016,1.00271253,.0002102,9.4193,53.9017,356.2419,183.6226,0,U,28912,999,726,0,.113E-5,0
DMSP 5D-3 F17 (USA 191),2006-050A,2026-07-13T19:52:03.432000,14.14996147,.0009795,98.7386,200.8535,346.9228,13.1690,0,U,29522,999,1619,.10487E-4,-.23E-6,0
FENGYUN 3A,2008-026A,2026-07-13T19:56:40.324992,14.19576343,.0009697,98.6887,135.1665,55.4329,304.7761,0,U,32958,999,93918,.25818E-4,.11E-6,0
GOES 14,2009-033A,2026-07-13T20:54:19.939968,1.00098692,.0001875,1.7562,82.7087,40.5773,247.9351,0,U,35491,999,685,0,-.364E-5,0
DMSP 5D-3 F18 (USA 210),2009-057A,2026-07-13T20:55:05.718144,14.14911100,.0011138,98.9055,175.5849,169.1767,190.9648,0,U,35951,999,86336,.1063E-3,.161E-5,0
EWS-G2 (GOES 15),2010-008A,2026-07-13T20:36:31.296384,1.00268273,.0005199,1.3486,82.4777,53.9031,167.8056,0,U,36411,999,5990,0,.16E-6,0
COMS 1,2010-032A,2026-07-13T09:53:41.272800,0.99168371,.00112481,4.8701,75.0394,14.7012,319.1150,0,U,36744,999,5134,0,-.255E-5,0
FENGYUN 3B,2010-059A,2026-07-13T19:59:28.505184,14.14847063,.0023123,98.9615,240.9582,110.2177,0.5474,0,U,37214,999,81119,.11188E-4,-.23E-6,0
SUOMI NPP,2011-061A,2026-07-13T20:14:17.353824,14.19522417,.0000691,98.7956,135.5380,222.5445,137.5678,0,U,37849,999,76222,.20893E-4,0,0
METEOSAT-10 (MSG-3),2012-035B,2026-07-13T20:18:30.070368,1.00270509,.0001102,4.7326,60.8867,16.8473,158.6585,0,U,38552,999,5112,0,-.16E-6,0
METOP-B,2012-049A,2026-07-13T20:49:34.368096,14.21446148,.0001073,98.6491,245.8328,263.5668,96.5388,0,U,38771,999,71705,.45293E-4,.56E-6,0
INSAT-3D,2013-038B,2026-07-13T20:55:27.331968,1.00269044,.0000507,1.9926,82.2017,85.6144,207.2989,0,U,39216,999,4734,0,-.346E-5,0
FENGYUN 3C,2013-052A,2026-07-13T21:35:32.847072,14.15760587,.0013731,98.4997,167.5504,309.9747,50.0221,0,U,39260,999,66234,.35621E-4,.28E-6,0
METEOR-M 2,2014-037A,2026-07-13T21:26:59.091072,14.21469614,.0005236,98.5122,169.6882,331.1561,28.9326,0,U,40069,999,62311,.56136E-4,.81E-6,0
HIMAWARI-8,2014-060A,2026-07-13T19:15:53.178048,1.00271859,.000106,0.0140,330.2262,199.9135,191.1734,0,U,40267,999,4302,0,-.28E-5,0
FENGYUN 2G,2014-090A,2026-07-13T21:27:25.387776,1.00260524,.0004207,5.7041,72.4904,153.4534,126.9012,0,U,40367,999,4226,0,-.308E-5,0
METEOSAT-11 (MSG-4),2015-034A,2026-07-13T20:21:07.318368,1.00271440,.0002212,3.2659,70.9419,353.7964,181.5085,0,U,40732,999,748,0,.54E-6,0
ELEKTRO-L 2,2015-074A,2026-07-13T20:14:22.964640,1.00272158,.0000963,6.7582,70.1901,213.7338,296.8806,0,U,41105,999,3877,0,-.128E-5,0
SENTINEL-3A,2016-011A,2026-07-13T20:46:54.751008,14.26739541,.0001367,98.6238,261.8648,90.5342,269.5995,0,U,41335,999,54186,.37402E-4,.47E-6,0
INSAT-3DR,2016-054A,2026-07-13T21:00:56.565216,1.00270602,.0010613,0.0664,88.6915,181.2333,51.0561,0,U,41752,999,3608,0,-.82E-6,0
HIMAWARI-9,2016-064A,2026-07-13T14:07:58.659168,1.00270073,.0001835,0.0078,101.5563,72.1625,110.4809,0,U,41836,999,3547,0,-.279E-5,0
GOES 16,2016-071A,2026-07-13T16:23:17.191968,1.00270871,.0000534,0.3999,85.4892,100.4352,246.7606,0,U,41866,999,3536,0,-.96E-6,0
FENGYUN 4A,2016-077A,2026-07-13T20:53:49.989408,1.00268840,.0008511,2.3871,79.9757,159.5171,129.4668,0,U,41882,999,3519,0,-.364E-5,0
CYGFM05,2016-078A,2026-07-13T18:48:49.117248,15.57809920,.0006217,34.9570,84.3141,22.7316,337.3684,0,U,41884,999,53290,.20189E-3,.15519E-3,0
CYGFM04,2016-078B,2026-07-13T19:07:08.966784,15.63018506,.0004366,34.9324,50.5362,67.7943,292.3245,0,U,41885,999,53316,.22475E-3,.21135E-3,0
CYGFM02,2016-078C,2026-07-13T20:55:08.399136,15.66290270,.0005055,34.9407,43.7537,73.0636,287.0645,0,U,41886,999,53335,.24592E-3,.2638E-3,0
CYGFM01,2016-078D,2026-07-13T19:47:36.826656,15.58527955,.0006201,34.9399,84.8793,16.3623,343.7301,0,U,41887,999,53286,.20538E-3,.16226E-3,0
CYGFM08,2016-078E,2026-07-13T19:13:15.900672,15.61400932,.0006369,34.9433,63.8897,53.6385,306.4927,0,U,41888,999,53313,.22383E-3,.19763E-3,0
CYGFM07,2016-078G,2026-07-13T19:43:59.755296,15.61510916,.0004746,34.9449,52.0659,68.7158,291.4074,0,U,41890,999,53316,.23016E-3,.20404E-3,0
CYGFM03,2016-078H,2026-07-13T19:02:29.917248,15.61495999,.0004688,34.9405,54.1873,50.9132,309.2010,0,U,41891,999,53313,.2258E-3,.20003E-3,0
