DMSP 5D-3 F16 (USA 172) 
1 28054U 03048A   26194.84075588 -.00000062  00000+0 -85823-5 0  9991
2 28054  98.9896 218.8445 0008108  74.5240  29.8682 14.14484840173252
METEOSAT-9 (MSG-2)      
1 28912U 05049B   26194.71255669  .00000113  00000+0  00000+0 0  9996
2 28912   9.4193  53.9017 0002102 356.2419 183.6226  1.00271253  7264
DMSP 5D-3 F17 (USA 191) 
1 29522U 06050A   26194.82781750 -.00000023  00000+0  10487-4 0  9990
2 29522  98.7386 200.8535 0009795 346.9228  13.1690 14.14996147 16193
FENGYUN 3A              
1 32958U 08026A   26194.83102228  .00000011  00000+0  25818-4 0  9990
2 32958  98.6887 135.1665 0009697  55.4329 304.7761 14.19576343939182
GOES 14                 
1 35491U 09033A   26194.87106412 -.00000364  00000+0  00000+0 0  9990
2 35491   1.7562  82.7087 0001875  40.5773 247.9351  1.00098692  6859
DMSP 5D-3 F18 (USA 210) 
1 35951U 09057A   26194.87159396  .00000161  00000+0  10630-3 0  9994
2 35951  98.9055 175.5849 0011138 169.1767 190.9648 14.14911100863366
EWS-G2 (GOES 15)        
1 36411U 10008A   26194.85869556  .00000016  00000+0  00000+0 0  9993
2 36411   1.3486  82.4777 0005199  53.9031 167.8056  1.00268273 59904
COMS 1                  
1 36744U 10032A   26194.41228325 -.00000255  00000+0  00000+0 0  9990
2 36744   4.8701  75.0394 0011248  14.7012 319.1150  0.99168371 51342
FENGYUN 3B              
1 37214U 10059A   26194.83296881 -.00000023  00000+0  11188-4 0  9997
2 37214  98.9615 240.9582 0023123 110.2177   0.5474 14.14847063811195
SUOMI NPP               
1 37849U 11061A   26194.84325641  .00000000  00000+0  20893-4 0  9990
2 37849  98.7956 135.5380 0000691 222.5445 137.5678 14.19522417762224
METEOSAT-10 (MSG-3)     
1 38552U 12035B   26194.84618137 -.00000016  00000+0  00000+0 0  9990
2 38552   4.7326  60.8867 0001102  16.8473 158.6585  1.00270509 51126
METOP-B                 
1 38771U 12049A   26194.86775889  .00000056  00000+0  45293-4 0  9999
2 38771  98.6491 245.8328 0001073 263.5668  96.5388 14.21446148717058
INSAT-3D                
1 39216U 13038B   26194.87184412 -.00000346  00000+0  00000+0 0  9995
2 39216   1.9926  82.2017 0000507  85.6144 207.2989  1.00269044 47341
FENGYUN 3C              
1 39260U 13052A   26194.89968573  .00000028  00000+0  35621-4 0  9998
2 39260  98.4997 167.5504 0013731 309.9747  50.0221 14.15760587662345
METEOR-M 2              
1 40069U 14037A   26194.89373948  .00000081  00000+0  56136-4 0  9990
2 40069  98.5122 169.6882 0005236 331.1561  28.9326 14.21469614623115
HIMAWARI-8              
1 40267U 14060A   26194.80269882 -.00000280  00000+0  00000+0 0  9994
2 40267   0.0140 330.2262 0001060 199.9135 191.1734  1.00271859 43026
FENGYUN 2G              
1 40367U 14090A   26194.89404384 -.00000308  00000+0  00000+0 0  9996
2 40367   5.7041  72.4904 0004207 153.4534 126.9012  1.00260524 42268
METEOSAT-11 (MSG-4)     
1 40732U 15034A   26194.84800137  .00000054  00000+0  00000+0 0  9999
2 40732   3.2659  70.9419 0002212 353.7964 181.5085  1.00271440  7483
ELEKTRO-L 2             
1 41105U 15074A   26194.84332135 -.00000128  00000+0  00000+0 0  9999
2 41105   6.7582  70.1901 0000963 213.7338 296.8806  1.00272158 38774
SENTINEL-3A             
1 41335U 16011A   26194.86591147  .00000047  00000+0  37402-4 0  9998
2 41335  98.6238 261.8648 0001367  90.5342 269.5995 14.26739541541860
INSAT-3DR               
1 41752U 16054A   26194.87565469 -.00000082  00000+0  00000+0 0  9996
2 41752   0.0664  88.6915 0010613 181.2333  51.0561  1.00270602 36089
HIMAWARI-9              
1 41836U 16064A   26194.58887337 -.00000279  00000+0  00000+0 0  9997
2 41836   0.0078 101.5563 0001835  72.1625 110.4809  1.00270073 35472
GOES 16                 
1 41866U 16071A   26194.68283787 -.00000096  00000+0  00000+0 0  9995
2 41866   0.3999  85.4892 0000534 100.4352 246.7606  1.00270871 35364
FENGYUN 4A              
1 41882U 16077A   26194.87071747 -.00000364  00000+0  00000+0 0  9999
2 41882   2.3871  79.9757 0008511 159.5171 129.4668  1.00268840 35197
CYGFM05                 
1 41884U 16078A   26194.78390182  .00015519  00000+0  20189-3 0  9990
2 41884  34.9570  84.3141 0006217  22.7316 337.3684 15.57809920532902
CYGFM04                 
1 41885U 16078B   26194.79663156  .00021135  00000+0  22475-3 0  9997
2 41885  34.9324  50.5362 0004366  67.7943 292.3245 15.63018506533169
CYGFM02                 
1 41886U 16078C   26194.87162499  .00026380  00000+0  24592-3 0  9990
2 41886  34.9407  43.7537 0005055  73.0636 287.0645 15.66290270533354
CYGFM01                 
1 41887U 16078D   26194.82473179  .00016226  00000+0  20538-3 0  9990
2 41887  34.9399  84.8793 0006201  16.3623 343.7301 15.58527955532863
CYGFM08                 
1 41888U 16078E   26194.80087848  .00019763  00000+0  22383-3 0  9992
2 41888  34.9433  63.8897 0006369  53.6385 306.4927 15.61400932533139
CYGFM07                 
1 41890U 16078G   26194.82221939  .00020404  00000+0  23016-3 0  9996
2 41890  34.9449  52.0659 0004746  68.7158 291.4074 15.61510916533160
CYGFM03                 
1 41891U 16078H   26194.79340182  .00020003  00000+0  22580-3 0  9995
2 41891  34.9405  54.1873 0004688  50.9132 309.2010 15.61495999533132
